IRIDIUM 150             
1 43257U 18030J   25210.53851121  .00000018  00000+0 -80767-6 0  9992
2 43257  86.3923  65.3501 0001856  92.7154 267.4254 14.34217482383912
IRIDIUM 143             
1 43258U 18030K   25210.58925160 -.00000019  00000+0 -13947-4 0  9999
2 43258  86.3927  65.4090 0001765  99.6586 260.4809 14.34217317383854
IRIDIUM 161             
1 43478U 18047C   25210.57260204  .00000131  00000+0  32991-4 0  9994
2 43478  86.4472 223.2219 0002456  85.5071 274.6410 14.43278929378600
IRIDIUM 152             
1 43479U 18047D   25210.56196890  .00000068  00000+0  17134-4 0  9994
2 43479  86.3946 223.0872 0002262  86.8130 273.3325 14.34218189376245
IRIDIUM 147             
1 43480U 18047E   25210.56831339 -.00000003  00000+0 -81653-5 0  9999
2 43480  86.3953 223.0840 0002336  90.2772 269.8691 14.34217474376245
IRIDIUM 110             
1 43481U 18047F   25210.57465582  .00000010  00000+0 -36053-5 0  9995
2 43481  86.3956 223.1647 0002487  81.0769 279.0708 14.34217462376234
IRIDIUM 162             
1 43482U 18047G   25210.56630164  .00000132  00000+0  33302-4 0  9992
2 43482  86.4472 223.1195 0002333  82.2840 277.8626 14.43277868378592
IRIDIUM 160             
1 43569U 18061A   25210.38095293  .00000089  00000+0  24550-4 0  9998
2 43569  86.3997 191.6614 0002441  83.7653 276.3821 14.34218393367106
